CCSDS_OMM_VERS = 2.0
CREATION_DATE  = 
ORIGINATOR     = 

OBJECT_NAME    = STARLINK-35490
OBJECT_ID      = 2025-243AD
CENTER_NAME    = EARTH
REF_FRAME      = TEME
TIME_SYSTEM    = UTC
MEAN_ELEMENT_THEORY = SGP/SGP4

EPOCH          = 2025-11-16T20:00:01.999008
MEAN_MOTION    = 15.63728423
ECCENTRICITY   = .0001277
INCLINATION    = 53.1594
RA_OF_ASC_NODE = 50.8271
ARG_OF_PERICENTER = 50.6445
MEAN_ANOMALY   = 24.7761

EPHEMERIS_TYPE = 0
CLASSIFICATION_TYPE = U
NORAD_CAT_ID   = 66204
ELEMENT_SET_NO = 999
REV_AT_EPOCH   = 437
BSTAR          = -.24089E-1
MEAN_MOTION_DOT = -.2013563E-1
MEAN_MOTION_DDOT = 0

CCSDS_OMM_VERS = 2.0
CREATION_DATE  = 
ORIGINATOR     = 

OBJECT_NAME    = STARLINK-35748
OBJECT_ID      = 2025-244A
CENTER_NAME    = EARTH
REF_FRAME      = TEME
TIME_SYSTEM    = UTC
MEAN_ELEMENT_THEORY = SGP/SGP4

EPOCH          = 2025-11-16T20:00:01.999008
MEAN_MOTION    = 15.49295443
ECCENTRICITY   = .0001163
INCLINATION    = 53.1593
RA_OF_ASC_NODE = 38.3803
ARG_OF_PERICENTER = 39.1003
MEAN_ANOMALY   = 215.1673

EPHEMERIS_TYPE = 0
CLASSIFICATION_TYPE = U
NORAD_CAT_ID   = 66206
ELEMENT_SET_NO = 999
REV_AT_EPOCH   = 409
BSTAR          = .45698E-3
MEAN_MOTION_DOT = .25036E-3
MEAN_MOTION_DDOT = 0

CCSDS_OMM_VERS = 2.0
CREATION_DATE  = 
ORIGINATOR     = 

OBJECT_NAME    = STARLINK-35747
OBJECT_ID      = 2025-244B
CENTER_NAME    = EARTH
REF_FRAME      = TEME
TIME_SYSTEM    = UTC
MEAN_ELEMENT_THEORY = SGP/SGP4

EPOCH          = 2025-11-16T16:12:00.451008
MEAN_MOTION    = 15.74261045
ECCENTRICITY   = .0001325
INCLINATION    = 53.1602
RA_OF_ASC_NODE = 38.5897
ARG_OF_PERICENTER = 83.7489
MEAN_ANOMALY   = 276.3682

EPHEMERIS_TYPE = 0
CLASSIFICATION_TYPE = U
NORAD_CAT_ID   = 66207
ELEMENT_SET_NO = 999
REV_AT_EPOCH   = 430
BSTAR          = .13674E-2
MEAN_MOTION_DOT = .205223E-2
MEAN_MOTION_DDOT = 0

CCSDS_OMM_VERS = 2.0
CREATION_DATE  = 
ORIGINATOR     = 

OBJECT_NAME    = STARLINK-35751
OBJECT_ID      = 2025-244C
CENTER_NAME    = EARTH
REF_FRAME      = TEME
TIME_SYSTEM    = UTC
MEAN_ELEMENT_THEORY = SGP/SGP4

EPOCH          = 2025-11-16T20:00:01.999008
MEAN_MOTION    = 15.49325560
ECCENTRICITY   = .0001077
INCLINATION    = 53.1594
RA_OF_ASC_NODE = 38.3724
ARG_OF_PERICENTER = 44.7599
MEAN_ANOMALY   = 213.3296

EPHEMERIS_TYPE = 0
CLASSIFICATION_TYPE = U
NORAD_CAT_ID   = 66208
ELEMENT_SET_NO = 999
REV_AT_EPOCH   = 420
BSTAR          = -.50166E-3
MEAN_MOTION_DOT = -.28263E-3
MEAN_MOTION_DDOT = 0

CCSDS_OMM_VERS = 2.0
CREATION_DATE  = 
ORIGINATOR     = 

OBJECT_NAME    = STARLINK-35750
OBJECT_ID      = 2025-244D
CENTER_NAME    = EARTH
REF_FRAME      = TEME
TIME_SYSTEM    = UTC
MEAN_ELEMENT_THEORY = SGP/SGP4

EPOCH          = 2025-11-16T20:00:01.999008
MEAN_MOTION    = 15.49368624
ECCENTRICITY   = .0000985
INCLINATION    = 53.1592
RA_OF_ASC_NODE = 38.3642
ARG_OF_PERICENTER = 54.2462
MEAN_ANOMALY   = 207.6794

EPHEMERIS_TYPE = 0
CLASSIFICATION_TYPE = U
NORAD_CAT_ID   = 66209
ELEMENT_SET_NO = 999
REV_AT_EPOCH   = 417
BSTAR          = -.20625E-2
MEAN_MOTION_DOT = -.113741E-2
MEAN_MOTION_DDOT = 0

CCSDS_OMM_VERS = 2.0
CREATION_DATE  = 
ORIGINATOR     = 

OBJECT_NAME    = STARLINK-35740
OBJECT_ID      = 2025-244E
CENTER_NAME    = EARTH
REF_FRAME      = TEME
TIME_SYSTEM    = UTC
MEAN_ELEMENT_THEORY = SGP/SGP4

EPOCH          = 2025-11-16T20:00:01.999008
MEAN_MOTION    = 15.49361574
ECCENTRICITY   = .000107
INCLINATION    = 53.1593
RA_OF_ASC_NODE = 38.3675
ARG_OF_PERICENTER = 47.5485
MEAN_ANOMALY   = 212.4604

EPHEMERIS_TYPE = 0
CLASSIFICATION_TYPE = U
NORAD_CAT_ID   = 66210
ELEMENT_SET_NO = 999
REV_AT_EPOCH   = 404
BSTAR          = -.18261E-2
MEAN_MOTION_DOT = -.100894E-2
MEAN_MOTION_DDOT = 0

CCSDS_OMM_VERS = 2.0
CREATION_DATE  = 
ORIGINATOR     = 

OBJECT_NAME    = STARLINK-35723
OBJECT_ID      = 2025-244F
CENTER_NAME    = EARTH
REF_FRAME      = TEME
TIME_SYSTEM    = UTC
MEAN_ELEMENT_THEORY = SGP/SGP4

EPOCH          = 2025-11-16T20:00:01.999008
MEAN_MOTION    = 15.49342786
ECCENTRICITY   = .0001115
INCLINATION    = 53.1593
RA_OF_ASC_NODE = 38.3592
ARG_OF_PERICENTER = 49.1023
MEAN_ANOMALY   = 214.7370

EPHEMERIS_TYPE = 0
CLASSIFICATION_TYPE = U
NORAD_CAT_ID   = 66211
ELEMENT_SET_NO = 999
REV_AT_EPOCH   = 409
BSTAR          = -.11323E-2
MEAN_MOTION_DOT = -.62991E-3
MEAN_MOTION_DDOT = 0

CCSDS_OMM_VERS = 2.0
CREATION_DATE  = 
ORIGINATOR     = 

OBJECT_NAME    = STARLINK-35710
OBJECT_ID      = 2025-244G
CENTER_NAME    = EARTH
REF_FRAME      = TEME
TIME_SYSTEM    = UTC
MEAN_ELEMENT_THEORY = SGP/SGP4

EPOCH          = 2025-11-16T20:00:01.999008
MEAN_MOTION    = 15.49331504
ECCENTRICITY   = .0001494
INCLINATION    = 53.1594
RA_OF_ASC_NODE = 38.3511
ARG_OF_PERICENTER = 62.8307
MEAN_ANOMALY   = 204.8891

EPHEMERIS_TYPE = 0
CLASSIFICATION_TYPE = U
NORAD_CAT_ID   = 66212
ELEMENT_SET_NO = 999
REV_AT_EPOCH   = 417
BSTAR          = -.14521E-2
MEAN_MOTION_DOT = -.80447E-3
MEAN_MOTION_DDOT = 0

CCSDS_OMM_VERS = 2.0
CREATION_DATE  = 
ORIGINATOR     = 

OBJECT_NAME    = STARLINK-34204
OBJECT_ID      = 2025-244H
CENTER_NAME    = EARTH
REF_FRAME      = TEME
TIME_SYSTEM    = UTC
MEAN_ELEMENT_THEORY = SGP/SGP4

EPOCH          = 2025-11-16T20:00:01.999008
MEAN_MOTION    = 15.49309454
ECCENTRICITY   = .0001084
INCLINATION    = 53.1595
RA_OF_ASC_NODE = 38.3556
ARG_OF_PERICENTER = 43.2565
MEAN_ANOMALY   = 222.5093

EPHEMERIS_TYPE = 0
CLASSIFICATION_TYPE = U
NORAD_CAT_ID   = 66213
ELEMENT_SET_NO = 999
REV_AT_EPOCH   = 436
BSTAR          = -.12793E-3
MEAN_MOTION_DOT = -.7556E-4
MEAN_MOTION_DDOT = 0

CCSDS_OMM_VERS = 2.0
CREATION_DATE  = 
ORIGINATOR     = 

OBJECT_NAME    = STARLINK-35714
OBJECT_ID      = 2025-244J
CENTER_NAME    = EARTH
REF_FRAME      = TEME
TIME_SYSTEM    = UTC
MEAN_ELEMENT_THEORY = SGP/SGP4

EPOCH          = 2025-11-16T20:00:01.999008
MEAN_MOTION    = 15.49334964
ECCENTRICITY   = .0001486
INCLINATION    = 53.1597
RA_OF_ASC_NODE = 38.3354
ARG_OF_PERICENTER = 59.9618
MEAN_ANOMALY   = 215.4203

EPHEMERIS_TYPE = 0
CLASSIFICATION_TYPE = U
NORAD_CAT_ID   = 66214
ELEMENT_SET_NO = 999
REV_AT_EPOCH   = 404
BSTAR          = -.14921E-2
MEAN_MOTION_DOT = -.82638E-3
MEAN_MOTION_DDOT = 0

CCSDS_OMM_VERS = 2.0
CREATION_DATE  = 
ORIGINATOR     = 

OBJECT_NAME    = STARLINK-35712
OBJECT_ID      = 2025-244K
CENTER_NAME    = EARTH
REF_FRAME      = TEME
TIME_SYSTEM    = UTC
MEAN_ELEMENT_THEORY = SGP/SGP4

EPOCH          = 2025-11-16T20:00:01.999008
MEAN_MOTION    = 15.49300549
ECCENTRICITY   = .0001041
INCLINATION    = 53.1595
RA_OF_ASC_NODE = 38.3272
ARG_OF_PERICENTER = 41.9231
MEAN_ANOMALY   = 237.2577

EPHEMERIS_TYPE = 0
CLASSIFICATION_TYPE = U
NORAD_CAT_ID   = 66215
ELEMENT_SET_NO = 999
REV_AT_EPOCH   = 404
BSTAR          = .17095E-3
MEAN_MOTION_DOT = .9067E-4
MEAN_MOTION_DDOT = 0

CCSDS_OMM_VERS = 2.0
CREATION_DATE  = 
ORIGINATOR     = 

OBJECT_NAME    = STARLINK-35709
OBJECT_ID      = 2025-244L
CENTER_NAME    = EARTH
REF_FRAME      = TEME
TIME_SYSTEM    = UTC
MEAN_ELEMENT_THEORY = SGP/SGP4

EPOCH          = 2025-11-16T20:00:01.999008
MEAN_MOTION    = 15.49303519
ECCENTRICITY   = .0001017
INCLINATION    = 53.1595
RA_OF_ASC_NODE = 38.3475
ARG_OF_PERICENTER = 37.9524
MEAN_ANOMALY   = 231.6486

EPHEMERIS_TYPE = 0
CLASSIFICATION_TYPE = U
NORAD_CAT_ID   = 66216
ELEMENT_SET_NO = 999
REV_AT_EPOCH   = 404
BSTAR          = .51185E-4
MEAN_MOTION_DOT = .2399E-4
MEAN_MOTION_DDOT = 0

CCSDS_OMM_VERS = 2.0
CREATION_DATE  = 
ORIGINATOR     = 

OBJECT_NAME    = STARLINK-35700
OBJECT_ID      = 2025-244M
CENTER_NAME    = EARTH
REF_FRAME      = TEME
TIME_SYSTEM    = UTC
MEAN_ELEMENT_THEORY = SGP/SGP4

EPOCH          = 2025-11-16T20:00:01.999008
MEAN_MOTION    = 15.49303476
ECCENTRICITY   = .0001018
INCLINATION    = 53.1596
RA_OF_ASC_NODE = 38.3436
ARG_OF_PERICENTER = 44.1821
MEAN_ANOMALY   = 227.3385

EPHEMERIS_TYPE = 0
CLASSIFICATION_TYPE = U
NORAD_CAT_ID   = 66217
ELEMENT_SET_NO = 999
REV_AT_EPOCH   = 404
BSTAR          = .68324E-4
MEAN_MOTION_DOT = .3353E-4
MEAN_MOTION_DDOT = 0

CCSDS_OMM_VERS = 2.0
CREATION_DATE  = 
ORIGINATOR     = 

OBJECT_NAME    = STARLINK-35722
OBJECT_ID      = 2025-244N
CENTER_NAME    = EARTH
REF_FRAME      = TEME
TIME_SYSTEM    = UTC
MEAN_ELEMENT_THEORY = SGP/SGP4

EPOCH          = 2025-11-16T20:00:01.999008
MEAN_MOTION    = 15.49303770
ECCENTRICITY   = .0001074
INCLINATION    = 53.1598
RA_OF_ASC_NODE = 38.3397
ARG_OF_PERICENTER = 42.8621
MEAN_ANOMALY   = 230.5680

EPHEMERIS_TYPE = 0
CLASSIFICATION_TYPE = U
NORAD_CAT_ID   = 66218
ELEMENT_SET_NO = 999
REV_AT_EPOCH   = 404
BSTAR          = .85747E-4
MEAN_MOTION_DOT = .4322E-4
MEAN_MOTION_DDOT = 0

CCSDS_OMM_VERS = 2.0
CREATION_DATE  = 
ORIGINATOR     = 

OBJECT_NAME    = STARLINK-35737
OBJECT_ID      = 2025-244P
CENTER_NAME    = EARTH
REF_FRAME      = TEME
TIME_SYSTEM    = UTC
MEAN_ELEMENT_THEORY = SGP/SGP4

EPOCH          = 2025-11-16T20:00:01.999008
MEAN_MOTION    = 15.49303431
ECCENTRICITY   = .0001126
INCLINATION    = 53.1596
RA_OF_ASC_NODE = 38.3317
ARG_OF_PERICENTER = 42.8364
MEAN_ANOMALY   = 234.4309

EPHEMERIS_TYPE = 0
CLASSIFICATION_TYPE = U
NORAD_CAT_ID   = 66219
ELEMENT_SET_NO = 999
REV_AT_EPOCH   = 420
BSTAR          = .11332E-3
MEAN_MOTION_DOT = .5858E-4
MEAN_MOTION_DDOT = 0

